{
  "type": "FeatureCollection",
  "features": [
    {
      "type": "Feature",
      "properties": {
        "norad_id": 30806,
        "name": "FENGYUN 1C DEB",
        "group": "fengyun-1c-debris",
        "lat": 75.18389928148532,
        "lon": -14.101319511090935,
        "alt_km": 811.1411300595755,
        "timestamp": "2025-12-22T22:44:21.254288+00:00",
        "meta_object_name": "FENGYUN 1C DEB",
        "meta_object_id": "1999-025AUQ",
        "meta_epoch": "2025-12-21T01:04:51.239136",
        "meta_mean_motion": 13.70431377,
        "meta_eccentricity": 0.02680834,
        "meta_inclination": 99.0352,
        "meta_ra_of_asc_node": 21.0883,
        "meta_arg_of_pericenter": 108.5793,
        "meta_mean_anomaly": 310.1966,
        "meta_ephemeris_type": 0,
        "meta_classification_type": "U",
        "meta_norad_cat_id": 30806,
        "meta_element_set_no": 999,
        "meta_rev_at_epoch": 93809,
        "meta_bstar": 0.00059263332,
        "meta_mean_motion_dot": 6.37e-06,
        "meta_mean_motion_ddot": 0,
        "tle_line1": "1 30806U 99025AUQ 25355.04503749  .00000637  00000+0  59263-3 0  9997",
        "tle_line2": "2 30806  99.0352  21.0883 0268083 108.5793 310.1966 13.70431377938090"
      },
      "geometry": {
        "type": "Point",
        "coordinates": [
          -14.101319511090935,
          75.18389928148532
        ]
      }
    },
    {
      "type": "Feature",
      "properties": {
        "norad_id": 30809,
        "name": "FENGYUN 1C DEB",
        "group": "fengyun-1c-debris",
        "lat": -68.38541100681762,
        "lon": -116.90833682818152,
        "alt_km": 812.173281241231,
        "timestamp": "2025-12-22T22:44:21.254298+00:00",
        "meta_object_name": "FENGYUN 1C DEB",
        "meta_object_id": "1999-025AUT",
        "meta_epoch": "2025-12-22T11:29:46.489056",
        "meta_mean_motion": 14.29308301,
        "meta_eccentricity": 0.00522093,
        "meta_inclination": 98.7889,
        "meta_ra_of_asc_node": 85.6025,
        "meta_arg_of_pericenter": 144.2768,
        "meta_mean_anomaly": 216.1925,
        "meta_ephemeris_type": 0,
        "meta_classification_type": "U",
        "meta_norad_cat_id": 30809,
        "meta_element_set_no": 999,
        "meta_rev_at_epoch": 97226,
        "meta_bstar": 0.0016743108,
        "meta_mean_motion_dot": 4.281e-05,
        "meta_mean_motion_ddot": 0,
        "tle_line1": "1 30809U 99025AUT 25356.47901029  .00004281  00000+0  16743-2 0  9995",
        "tle_line2": "2 30809  98.7889  85.6025 0052209 144.2768 216.1925 14.29308301972260"
      },
      "geometry": {
        "type": "Point",
        "coordinates": [
          -116.90833682818152,
          -68.38541100681762
        ]
      }
    },
    {
      "type": "Feature",
      "properties": {
        "norad_id": 30810,
        "name": "FENGYUN 1C DEB",
        "group": "fengyun-1c-debris",
        "lat": 75.47784738405976,
        "lon": 132.37313500726802,
        "alt_km": 790.5733704219256,
        "timestamp": "2025-12-22T22:44:21.254308+00:00",
        "meta_object_name": "FENGYUN 1C DEB",
        "meta_object_id": "1999-025AUU",
        "meta_epoch": "2025-12-22T03:34:09.357888",
        "meta_mean_motion": 14.04231857,
        "meta_eccentricity": 0.0179832,
        "meta_inclination": 98.6622,
        "meta_ra_of_asc_node": 167.6624,
        "meta_arg_of_pericenter": 28.3351,
        "meta_mean_anomaly": 332.7457,
        "meta_ephemeris_type": 0,
        "meta_classification_type": "U",
        "meta_norad_cat_id": 30810,
        "meta_element_set_no": 999,
        "meta_rev_at_epoch": 94515,
        "meta_bstar": 0.0028610424,
        "meta_mean_motion_dot": 5.208e-05,
        "meta_mean_motion_ddot": 0,
        "tle_line1": "1 30810U 99025AUU 25356.14871942  .00005208  00000+0  28610-2 0  9997",
        "tle_line2": "2 30810  98.6622 167.6624 0179832  28.3351 332.7457 14.04231857945151"
      },
      "geometry": {
        "type": "Point",
        "coordinates": [
          132.37313500726802,
          75.47784738405976
        ]
      }
    },
    {
      "type": "Feature",
      "properties": {
        "norad_id": 30811,
        "name": "FENGYUN 1C DEB",
        "group": "fengyun-1c-debris",
        "lat": -64.67078129355365,
        "lon": -163.7586541884662,
        "alt_km": 1174.4282741569705,
        "timestamp": "2025-12-22T22:44:21.254319+00:00",
        "meta_object_name": "FENGYUN 1C DEB",
        "meta_object_id": "1999-025AUV",
        "meta_epoch": "2025-12-22T02:07:59.436768",
        "meta_mean_motion": 13.61870689,
        "meta_eccentricity": 0.02779782,
        "meta_inclination": 98.7814,
        "meta_ra_of_asc_node": 34.5277,
        "meta_arg_of_pericenter": 21.7209,
        "meta_mean_anomaly": 339.5458,
        "meta_ephemeris_type": 0,
        "meta_classification_type": "U",
        "meta_norad_cat_id": 30811,
        "meta_element_set_no": 999,
        "meta_rev_at_epoch": 92994,
        "meta_bstar": 0.0016486315,
        "meta_mean_motion_dot": 1.603e-05,
        "meta_mean_motion_ddot": 0,
        "tle_line1": "1 30811U 99025AUV 25356.08888237  .00001603  00000+0  16486-2 0  9999",
        "tle_line2": "2 30811  98.7814  34.5277 0277978  21.7209 339.5458 13.61870689929940"
      },
      "geometry": {
        "type": "Point",
        "coordinates": [
          -163.7586541884662,
          -64.67078129355365
        ]
      }
    },
    {
      "type": "Feature",
      "properties": {
        "norad_id": 30814,
        "name": "FENGYUN 1C DEB",
        "group": "fengyun-1c-debris",
        "lat": -35.80802880950286,
        "lon": -19.052335489988447,
        "alt_km": 709.1681214916816,
        "timestamp": "2025-12-22T22:44:21.254329+00:00",
        "meta_object_name": "FENGYUN 1C DEB",
        "meta_object_id": "1999-025AUY",
        "meta_epoch": "2025-12-22T10:26:43.320768",
        "meta_mean_motion": 14.60652696,
        "meta_eccentricity": 0.00304364,
        "meta_inclination": 99.0824,
        "meta_ra_of_asc_node": 333.7595,
        "meta_arg_of_pericenter": 201.6785,
        "meta_mean_anomaly": 309.7816,
        "meta_ephemeris_type": 0,
        "meta_classification_type": "U",
        "meta_norad_cat_id": 30814,
        "meta_element_set_no": 999,
        "meta_rev_at_epoch": 97883,
        "meta_bstar": 0.0028762261,
        "meta_mean_motion_dot": 0.00014063,
        "meta_mean_motion_ddot": 0,
        "tle_line1": "1 30814U 99025AUY 25356.43522362  .00014063  00000+0  28762-2 0  9999",
        "tle_line2": "2 30814  99.0824 333.7595 0030436 201.6785 309.7816 14.60652696978834"
      },
      "geometry": {
        "type": "Point",
        "coordinates": [
          -19.052335489988447,
          -35.80802880950286
        ]
      }
    },
    {
      "type": "Feature",
      "properties": {
        "norad_id": 30815,
        "name": "FENGYUN 1C DEB",
        "group": "fengyun-1c-debris",
        "lat": 64.93650235947396,
        "lon": -5.146820842877113,
        "alt_km": 643.7028811963992,
        "timestamp": "2025-12-22T22:44:21.254339+00:00",
        "meta_object_name": "FENGYUN 1C DEB",
        "meta_object_id": "1999-025AUZ",
        "meta_epoch": "2025-12-22T00:00:14.649984",
        "meta_mean_motion": 14.73969877,
        "meta_eccentricity": 0.00028923,
        "meta_inclination": 99.2998,
        "meta_ra_of_asc_node": 153.2568,
        "meta_arg_of_pericenter": 269.2255,
        "meta_mean_anomaly": 220.3187,
        "meta_ephemeris_type": 0,
        "meta_classification_type": "U",
        "meta_norad_cat_id": 30815,
        "meta_element_set_no": 999,
        "meta_rev_at_epoch": 97916,
        "meta_bstar": 0.0039771027,
        "meta_mean_motion_dot": 0.0002616,
        "meta_mean_motion_ddot": 0,
        "tle_line1": "1 30815U 99025AUZ 25356.00016956  .00026160  00000+0  39771-2 0  9993",
        "tle_line2": "2 30815  99.2998 153.2568 0002892 269.2255 220.3187 14.73969877979163"
      },
      "geometry": {
        "type": "Point",
        "coordinates": [
          -5.146820842877113,
          64.93650235947396
        ]
      }
    },
    {
      "type": "Feature",
      "properties": {
        "norad_id": 30816,
        "name": "FENGYUN 1C DEB",
        "group": "fengyun-1c-debris",
        "lat": -24.018440173279586,
        "lon": -116.5431044049353,
        "alt_km": 874.6667896820236,
        "timestamp": "2025-12-22T22:44:21.254350+00:00",
        "meta_object_name": "FENGYUN 1C DEB",
        "meta_object_id": "1999-025AVA",
        "meta_epoch": "2025-12-21T17:34:09.647040",
        "meta_mean_motion": 14.18060149,
        "meta_eccentricity": 0.00517771,
        "meta_inclination": 98.9138,
        "meta_ra_of_asc_node": 66.2472,
        "meta_arg_of_pericenter": 29.3431,
        "meta_mean_anomaly": 93.6158,
        "meta_ephemeris_type": 0,
        "meta_classification_type": "U",
        "meta_norad_cat_id": 30816,
        "meta_element_set_no": 999,
        "meta_rev_at_epoch": 96521,
        "meta_bstar": 0.0012528706,
        "meta_mean_motion_dot": 2.558e-05,
        "meta_mean_motion_ddot": 0,
        "tle_line1": "1 30816U 99025AVA 25355.73205610  .00002558  00000+0  12529-2 0  9997",
        "tle_line2": "2 30816  98.9138  66.2472 0051777  29.3431  93.6158 14.18060149965213"
      },
      "geometry": {
        "type": "Point",
        "coordinates": [
          -116.5431044049353,
          -24.018440173279586
        ]
      }
    }
  ]
}